{"type": "FeatureCollection", "features": [ {"type": "Feature", "properties": {"norad_id": 35038, "name": "COSMOS 2251 DEB", "group": "cosmos-2251-debris", "lat": 64.44934904031065, "lon": -173.40096570137445, "alt_km": 790.4801923858668, "timestamp": "2025-12-12T09:49:09.127948+00:00", "meta": {"OBJECT_NAME": "COSMOS 2251 DEB", "OBJECT_ID": "1993-036AHB", "EPOCH": "2025-12-09T21:12:51.178752", "MEAN_MOTION": 14.25117767, "ECCENTRICITY": 0.01138214, "INCLINATION": 74.1071, "RA_OF_ASC_NODE": 47.7141, "ARG_OF_PERICENTER": 32.4196, "MEAN_ANOMALY": 86.2003, "EPHEMERIS_TYPE": 0, "CLASSIFICATION_TYPE": "U", "NORAD_CAT_ID": 35038, "ELEMENT_SET_NO": 999, "REV_AT_EPOCH": 85528, "BSTAR": 0.0019860831, "MEAN_MOTION_DOT": 4.964e-05, "MEAN_MOTION_DDOT": 0}, "tle": {"line1": "1 35038U 93036AHB 25343.88392568  .00004964  00000+0  19861-2 0  9995", "line2": "2 35038  74.1071  47.7141 0113821  32.4196  86.2003 14.25117767855284"}}, "geometry": {"type": "Point", "coordinates": [-173.40096570137445, 64.44934904031065]}}, {"type": "Feature", "properties": {"norad_id": 35043, "name": "COSMOS 2251 DEB", "group": "cosmos-2251-debris", "lat": -62.04058291621246, "lon": -100.930628527203, "alt_km": 578.8527176776852, "timestamp": "2025-12-12T09:49:09.127958+00:00", "meta": {"OBJECT_NAME": "COSMOS 2251 DEB", "OBJECT_ID": "1993-036AHG", "EPOCH": "2025-12-12T03:49:22.130688", "MEAN_MOTION": 14.769144, "ECCENTRICITY": 0.0096604, "INCLINATION": 73.951, "RA_OF_ASC_NODE": 46.7198, "ARG_OF_PERICENTER": 256.1813, "MEAN_ANOMALY": 102.8598, "EPHEMERIS_TYPE": 0, "CLASSIFICATION_TYPE": "U", "NORAD_CAT_ID": 35043, "ELEMENT_SET_NO": 999, "REV_AT_EPOCH": 67410, "BSTAR": 0.0047771, "MEAN_MOTION_DOT": 0.00036451, "MEAN_MOTION_DDOT": 0}, "tle": {"line1": "1 35043U 93036AHG 25346.15928392  .00036451  00000+0  47771-2 0  9991", "line2": "2 35043  73.9510  46.7198 0096604 256.1813 102.8598 14.76914400674105"}}, "geometry": {"type": "Point", "coordinates": [-100.930628527203, -62.04058291621246]}}, {"type": "Feature", "properties": {"norad_id": 35045, "name": "COSMOS 2251 DEB", "group": "cosmos-2251-debris", "lat": 16.30779635799839, "lon": -131.61675550480848, "alt_km": 981.4228824419979, "timestamp": "2025-12-12T09:49:09.127968+00:00", "meta": {"OBJECT_NAME": "COSMOS 2251 DEB", "OBJECT_ID": "1993-036AHJ", "EPOCH": "2025-12-11T21:01:34.845600", "MEAN_MOTION": 14.00382084, "ECCENTRICITY": 0.0183574, "INCLINATION": 73.7197, "RA_OF_ASC_NODE": 54.2288, "ARG_OF_PERICENTER": 296.3554, "MEAN_ANOMALY": 61.8829, "EPHEMERIS_TYPE": 0, "CLASSIFICATION_TYPE": "U", "NORAD_CAT_ID": 35045, "ELEMENT_SET_NO": 999, "REV_AT_EPOCH": 84631, "BSTAR": 0.00094643, "MEAN_MOTION_DOT": 1.595e-05, "MEAN_MOTION_DDOT": 0}, "tle": {"line1": "1 35045U 93036AHJ 25345.87609775  .00001595  00000+0  94643-3 0  9994", "line2": "2 35045  73.7197  54.2288 0183574 296.3554  61.8829 14.00382084846310"}}, "geometry": {"type": "Point", "coordinates": [-131.61675550480848, 16.30779635799839]}}, {"type": "Feature", "properties": {"norad_id": 35060, "name": "COSMOS 2251 DEB", "group": "cosmos-2251-debris", "lat": 21.223907256753538, "lon": -108.66862758915524, "alt_km": 744.9788205836458, "timestamp": "2025-12-12T09:49:09.127979+00:00", "meta": {"OBJECT_NAME": "COSMOS 2251 DEB", "OBJECT_ID": "1993-036AHP", "EPOCH": "2025-11-28T02:37:07.839264", "MEAN_MOTION": 14.41547968, "ECCENTRICITY": 0.00179641, "INCLINATION": 74.0363, "RA_OF_ASC_NODE": 271.4275, "ARG_OF_PERICENTER": 359.5881, "MEAN_ANOMALY": 0.5257, "EPHEMERIS_TYPE": 0, "CLASSIFICATION_TYPE": "U", "NORAD_CAT_ID": 35060, "ELEMENT_SET_NO": 999, "REV_AT_EPOCH": 87031, "BSTAR": 0.0004076845, "MEAN_MOTION_DOT": 1.301e-05, "MEAN_MOTION_DDOT": 0}, "tle": {"line1": "1 35060U 93036AHP 25332.10911851  .00001301  00000+0  40768-3 0  9998", "line2": "2 35060  74.0363 271.4275 0017964 359.5881   0.5257 14.41547968870310"}}, "geometry": {"type": "Point", "coordinates": [-108.66862758915524, 21.223907256753538]}}, {"type": "Feature", "properties": {"norad_id": 35061, "name": "COSMOS 2251 DEB", "group": "cosmos-2251-debris", "lat": -52.37048978131464, "lon": 148.14404572553326, "alt_km": 702.1697583688074, "timestamp": "2025-12-12T09:49:09.127989+00:00", "meta": {"OBJECT_NAME": "COSMOS 2251 DEB", "OBJECT_ID": "1993-036AHQ", "EPOCH": "2025-12-11T21:18:06.026400", "MEAN_MOTION": 14.67814621, "ECCENTRICITY": 0.0039076, "INCLINATION": 74.046, "RA_OF_ASC_NODE": 307.3691, "ARG_OF_PERICENTER": 58.491, "MEAN_ANOMALY": 302.0067, "EPHEMERIS_TYPE": 0, "CLASSIFICATION_TYPE": "U", "NORAD_CAT_ID": 35061, "ELEMENT_SET_NO": 999, "REV_AT_EPOCH": 88562, "BSTAR": 0.0012324, "MEAN_MOTION_DOT": 7.091e-05, "MEAN_MOTION_DDOT": 0}, "tle": {"line1": "1 35061U 93036AHQ 25345.88756975  .00007091  00000+0  12324-2 0  9990", "line2": "2 35061  74.0460 307.3691 0039076  58.4910 302.0067 14.67814621885626"}}, "geometry": {"type": "Point", "coordinates": [148.14404572553326, -52.37048978131464]}}, {"type": "Feature", "properties": {"norad_id": 35062, "name": "COSMOS 2251 DEB", "group": "cosmos-2251-debris", "lat": -15.723949537426476, "lon": 89.22972337352174, "alt_km": 850.1812454872779, "timestamp": "2025-12-12T09:49:09.127999+00:00", "meta": {"OBJECT_NAME": "COSMOS 2251 DEB", "OBJECT_ID": "1993-036AHR", "EPOCH": "2025-12-10T15:42:45.436320", "MEAN_MOTION": 14.22906612, "ECCENTRICITY": 0.01275957, "INCLINATION": 74.0784, "RA_OF_ASC_NODE": 96.9836, "ARG_OF_PERICENTER": 97.3041, "MEAN_ANOMALY": 264.2628, "EPHEMERIS_TYPE": 0, "CLASSIFICATION_TYPE": "U", "NORAD_CAT_ID": 35062, "ELEMENT_SET_NO": 999, "REV_AT_EPOCH": 85469, "BSTAR": 0.0028656551, "MEAN_MOTION_DOT": 6.986e-05, "MEAN_MOTION_DDOT": 0}, "tle": {"line1": "1 35062U 93036AHR 25344.65469255  .00006986  00000+0  28657-2 0  9995", "line2": "2 35062  74.0784  96.9836 0127595  97.3041 264.2628 14.22906612854697"}}, "geometry": {"type": "Point", "coordinates": [89.22972337352174, -15.723949537426476]}}, {"type": "Feature", "properties": {"norad_id": 35065, "name": "COSMOS 2251 DEB", "group": "cosmos-2251-debris", "lat": 4.975136719780431, "lon": -163.6146008973462, "alt_km": 731.7779023386101, "timestamp": "2025-12-12T09:49:09.128009+00:00", "meta": {"OBJECT_NAME": "COSMOS 2251 DEB", "OBJECT_ID": "1993-036AHU", "EPOCH": "2025-12-08T21:05:49.871616", "MEAN_MOTION": 14.4570853, "ECCENTRICITY": 0.0019714, "INCLINATION": 74.0196, "RA_OF_ASC_NODE": 201.5431, "ARG_OF_PERICENTER": 327.1177, "MEAN_ANOMALY": 32.8753, "EPHEMERIS_TYPE": 0, "CLASSIFICATION_TYPE": "U", "NORAD_CAT_ID": 35065, "ELEMENT_SET_NO": 999, "REV_AT_EPOCH": 68295, "BSTAR": 0.00050947, "MEAN_MOTION_DOT": 1.782e-05, "MEAN_MOTION_DDOT": 0}, "tle": {"line1": "1 35065U 93036AHU 25342.87904944  .00001782  00000+0  50947-3 0  9996", "line2": "2 35065  74.0196 201.5431 0019714 327.1177  32.8753 14.45708530682959"}}, "geometry": {"type": "Point", "coordinates": [-163.6146008973462, 4.975136719780431]}}, {"type": "Feature", "properties": {"norad_id": 35071, "name": "COSMOS 2251 DEB", "group": "cosmos-2251-debris", "lat": 22.099070044771747, "lon": -12.602734540486237, "alt_km": 552.1683697131293, "timestamp": "2025-12-12T09:49:09.128020+00:00", "meta": {"OBJECT_NAME": "COSMOS 2251 DEB", "OBJECT_ID": "1993-036AJA", "EPOCH": "2025-12-11T20:21:16.221024", "MEAN_MOTION": 15.03424609, "ECCENTRICITY": 0.00684253, "INCLINATION": 73.9323, "RA_OF_ASC_NODE": 175.2711, "ARG_OF_PERICENTER": 72.0374, "MEAN_ANOMALY": 288.8257, "EPHEMERIS_TYPE": 0, "CLASSIFICATION_TYPE": "U", "NORAD_CAT_ID": 35071, "ELEMENT_SET_NO": 999, "REV_AT_EPOCH": 67523, "BSTAR": 0.00096830833, "MEAN_MOTION_DOT": 0.00013858, "MEAN_MOTION_DDOT": 0}, "tle": {"line1": "1 35071U 93036AJA 25345.84810441  .00013858  00000+0  96831-3 0  9990", "line2": "2 35071  73.9323 175.2711 0068425  72.0374 288.8257 15.03424609675234"}}, "geometry": {"type": "Point", "coordinates": [-12.602734540486237, 22.099070044771747]}}, {"type": "Feature", "properties": {"norad_id": 35073, "name": "COSMOS 2251 DEB", "group": "cosmos-2251-debris", "lat": -73.67243148250986, "lon": -130.39351453542142, "alt_km": 579.2060405492412, "timestamp": "2025-12-12T09:49:09.128030+00:00", "meta": {"OBJECT_NAME": "COSMOS 2251 DEB", "OBJECT_ID": "1993-036AJC", "EPOCH": "2025-12-10T16:37:50.806560", "MEAN_MOTION": 15.00404336, "ECCENTRICITY": 0.00107016, "INCLINATION": 74.0016, "RA_OF_ASC_NODE": 334.7492, "ARG_OF_PERICENTER": 76.0723, "MEAN_ANOMALY": 284.1653, "EPHEMERIS_TYPE": 0, "CLASSIFICATION_TYPE": "U", "NORAD_CAT_ID": 35073, "ELEMENT_SET_NO": 999, "REV_AT_EPOCH": 67448, "BSTAR": 0.0043502619, "MEAN_MOTION_DOT": 0.00055148, "MEAN_MOTION_DDOT": 0}, "tle": {"line1": "1 35073U 93036AJC 25344.69294915  .00055148  00000+0  43503-2 0  9991", "line2": "2 35073  74.0016 334.7492 0010701  76.0723 284.1653 15.00404336674488"}}, "geometry": {"type": "Point", "coordinates": [-130.39351453542142, -73.67243148250986]}}, {"type": "Feature", "properties": {"norad_id": 35284, "name": "COSMOS 2251 DEB", "group": "cosmos-2251-debris", "lat": 63.347105259122785, "lon": -60.23014368960672, "alt_km": 756.847706335885, "timestamp": "2025-12-12T09:49:09.128040+00:00", "meta": {"OBJECT_NAME": "COSMOS 2251 DEB", "OBJECT_ID": "1993-036AJN", "EPOCH": "2025-12-11T12:36:30.542400", "MEAN_MOTION": 14.38316207, "ECCENTRICITY": 0.001676, "INCLINATION": 74.0493, "RA_OF_ASC_NODE": 266.6592, "ARG_OF_PERICENTER": 343.4318, "MEAN_ANOMALY": 190.4692, "EPHEMERIS_TYPE": 0, "CLASSIFICATION_TYPE": "U", "NORAD_CAT_ID": 35284, "ELEMENT_SET_NO": 999, "REV_AT_EPOCH": 65508, "BSTAR": 0.00029322355, "MEAN_MOTION_DOT": 8.68e-06, "MEAN_MOTION_DDOT": 0}, "tle": {"line1": "1 35284U 93036AJN 25345.52535350  .00000868  00000+0  29322-3 0  9992", "line2": "2 35284  74.0493 266.6592 0016760 343.4318 190.4692 14.38316207655083"}}, "geometry": {"type": "Point", "coordinates": [-60.23014368960672, 63.347105259122785]}}]}